NORAD_CAT_ID,OBJECT_NAME,OBJECT_TYPE,EPOCH,MEAN_MOTION,ECCENTRICITY,INCLINATION,RA_OF_ASC_NODE,ARG_OF_PERICENTER,MEAN_ANOMALY,BSTAR,MEAN_MOTION_DOT,MEAN_MOTION_DDOT,TLE_LINE0,TLE_LINE1,TLE_LINE2,SEMIMAJOR_AXIS,PERIOD,APOGEE,PERIGEE,DECAYED
53727.0,STARLINK-4701,PAYLOAD,2023-08-24 00:05:09,15.08840851,0.0001275,53.217,103.1439,92.6782,267.4356,0.000103,1.352e-05,0.0,0 STARLINK-4701,1 53727U 22107AD  23236.00358177  .00001352  00000-0  10300-3 0  9991,2 53727  53.2170 103.1439 0001275  92.6782 267.4356 15.08840851 54354,6917.878,95.438,540.625,538.861,0.0
53727.0,STARLINK-4701,PAYLOAD,2023-08-25 01:31:19,15.08837737,0.0001336,53.218,98.3851,91.7458,268.3688,0.00010373,1.363e-05,0.0,0 STARLINK-4701,1 53727U 22107AD  23237.06342528  .00001363  00000-0  10373-3 0  9993,2 53727  53.2180  98.3851 0001336  91.7458 268.3688 15.08837737 53914,6917.887,95.438,540.677,538.828,0.0
53727.0,STARLINK-4701,PAYLOAD,2023-08-25 20:35:57,15.08842301,0.0001315,53.2177,94.8168,92.1535,267.9608,7.8528e-05,9.62e-06,0.0,0 STARLINK-4701,1 53727U 22107AD  23237.85830410  .00000962  00000-0  78528-4 0  9993,2 53727  53.2177  94.8168 0001315  92.1535 267.9608 15.08842301 54630,6917.873,95.437,540.648,538.829,0.0
53727.0,STARLINK-4701,PAYLOAD,2023-08-25 23:46:43,15.08844781,0.0001307,53.2177,94.222,90.6437,269.4705,9.4014e-05,1.209e-05,0.0,0 STARLINK-4701,1 53727U 22107AD  23237.99078195  .00001209  00000-0  94014-4 0  9995,2 53727  53.2177  94.2220 0001307  90.6437 269.4705 15.08844781 54659,6917.866,95.437,540.635,538.827,0.0
53727.0,STARLINK-4701,PAYLOAD,2023-08-26 20:26:45,15.0884125,0.0001685,53.2184,90.358,71.5655,288.552,2.3324e-05,8.3e-07,0.0,0 STARLINK-4701,1 53727U 22107AD  23238.85190989  .00000083  00000-0  23324-4 0  9992,2 53727  53.2184  90.3580 0001685  71.5655 288.5520 15.08841250 54781,6917.877,95.437,540.907,538.576,0.0
53727.0,STARLINK-4701,PAYLOAD,2023-08-26 23:37:31,15.08839295,0.0001616,53.2184,89.7622,73.8492,286.2678,7.7122e-05,9.4e-06,0.0,0 STARLINK-4701,1 53727U 22107AD  23238.98438898  .00000940  00000-0  77122-4 0  9997,2 53727  53.2184  89.7622 0001616  73.8492 286.2678 15.08839295 54200,6917.883,95.438,540.865,538.63,0.0
53727.0,STARLINK-4701,PAYLOAD,2023-08-27 20:17:31,15.08845458,0.0001585,53.2182,85.8966,74.3197,285.797,9.7655e-05,1.267e-05,0.0,0 STARLINK-4701,1 53727U 22107AD  23239.84550391  .00001267  00000-0  97655-4 0  9992,2 53727  53.2182  85.8966 0001585  74.3197 285.7970 15.08845458 54936,6917.864,95.437,540.825,538.632,0.0
53727.0,STARLINK-4701,PAYLOAD,2023-08-27 23:28:17,15.08847897,0.0001527,53.2183,85.3008,78.9445,281.1719,0.00011539,1.549e-05,0.0,0 STARLINK-4701,1 53727U 22107AD  23239.97798118  .00001549  00000-0  11539-3 0  9996,2 53727  53.2183  85.3008 0001527  78.9445 281.1719 15.08847897 54357,6917.856,95.437,540.778,538.665,0.0
53727.0,STARLINK-4701,PAYLOAD,2023-08-28 16:57:32,15.08839816,0.000153,53.218,82.0263,119.6253,240.4891,4.5069e-05,4.29e-06,0.0,0 STARLINK-4701,1 53727U 22107AD  23240.70662538  .00000429  00000-0  45069-4 0  9997,2 53727  53.2180  82.0263 0001530 119.6253 240.4891 15.08839816 54468,6917.881,95.438,540.804,538.688,0.0
53727.0,STARLINK-4701,PAYLOAD,2023-08-28 20:08:18,15.08840505,0.0001379,53.2172,81.4348,96.9448,263.1701,5.502e-05,5.88e-06,0.0,0 STARLINK-4701,1 53727U 22107AD  23240.83910583  .00000588  00000-0  55020-4 0  9991,2 53727  53.2172  81.4348 0001379  96.9448 263.1701 15.08840505 55088,6917.879,95.438,540.698,538.79,0.0
53727.0,STARLINK-4701,PAYLOAD,2023-08-29 16:48:19,15.088199,0.0001797,53.2163,77.5707,130.0949,230.0201,0.00026937,3.999e-05,0.0,0 STARLINK-4701,1 53727U 22107AD  23241.70022955  .00003999  00000-0  26937-3 0  9998,2 53727  53.2163  77.5707 0001797 130.0949 230.0201 15.08819900 54614,6917.942,95.439,541.05,538.564,0.0
53727.0,STARLINK-4701,PAYLOAD,2023-08-29 19:59:05,15.08842642,0.000132,53.2178,76.9768,93.3315,266.7829,-4.5597e-05,-1.014e-05,0.0,0 STARLINK-4701,1 53727U 22107AD  23241.83270829 -.00001014  00000-0 -45597-4 0  9999,2 53727  53.2178  76.9768 0001320  93.3315 266.7829 15.08842642 55230,6917.872,95.437,540.65,538.824,0.0
53727.0,STARLINK-4701,PAYLOAD,2023-08-29 23:09:52,15.08842799,0.0001312,53.2168,76.3814,108.2585,251.855,-2.0058e-05,-6.07e-06,0.0,0 STARLINK-4701,1 53727U 22107AD  23241.96518650 -.00000607  00000-0 -20058-4 0  9992,2 53727  53.2168  76.3814 0001312 108.2585 251.8550 15.08842799 54655,6917.872,95.437,540.644,538.829,0.0
53727.0,STARLINK-4701,PAYLOAD,2023-08-30 16:39:06,15.08837459,0.0001367,53.2169,73.11,94.9784,265.1364,7.3647e-05,8.84e-06,0.0,0 STARLINK-4701,1 53727U 22107AD  23242.69382932  .00000884  00000-0  73647-4 0  9992,2 53727  53.2169  73.1100 0001367  94.9784 265.1364 15.08837459 55368,6917.888,95.438,540.699,538.807,0.0
53727.0,STARLINK-4701,PAYLOAD,2023-08-31 11:43:44,15.08834435,0.0001212,53.2172,69.5423,95.2958,264.8173,3.7054e-05,3.02e-06,0.0,0 STARLINK-4701,1 53727U 22107AD  23243.48871470  .00000302  00000-0  37054-4 0  9997,2 53727  53.2172  69.5423 0001212  95.2958 264.8173 15.08834435 54886,6917.897,95.438,540.601,538.924,0.0
53727.0,STARLINK-4701,PAYLOAD,2023-09-01 05:12:59,15.08837375,0.0001134,53.2172,66.272,96.4968,263.6153,7.4824e-05,9.03e-06,0.0,0 STARLINK-4701,1 53727U 22107AD  23244.21735395  .00000903  00000-0  74824-4 0  9997,2 53727  53.2172  66.2720 0001134  96.4968 263.6153 15.08837375 55597,6917.888,95.438,540.538,538.969,0.0
53727.0,STARLINK-4701,PAYLOAD,2023-09-01 13:09:55,15.08837443,0.0001255,53.2171,64.7844,89.5144,270.5992,7.658e-05,9.31e-06,0.0,0 STARLINK-4701,1 53727U 22107AD  23244.54855540  .00000931  00000-0  76580-4 0  9990,2 53727  53.2171  64.7844 0001255  89.5144 270.5992 15.08837443 55649,6917.888,95.438,540.621,538.885,0.0
53727.0,STARLINK-4701,PAYLOAD,2023-09-02 13:00:42,15.08836351,0.0001214,53.217,60.324,92.7984,267.3147,4.4346e-05,4.18e-06,0.0,0 STARLINK-4701,1 53727U 22107AD  23245.54215737  .00000418  00000-0  44346-4 0  9994,2 53727  53.2170  60.3240 0001214  92.7984 267.3147 15.08836351 55792,6917.892,95.438,540.596,538.917,0.0
53727.0,STARLINK-4701,PAYLOAD,2023-09-02 17:46:51,15.08840644,0.0001208,53.2181,59.4322,94.1606,265.9524,7.8752e-05,9.66e-06,0.0,0 STARLINK-4701,1 53727U 22107AD  23245.74087444  .00000966  00000-0  78752-4 0  9994,2 53727  53.2181  59.4322 0001208  94.1606 265.9524 15.08840644 55225,6917.878,95.438,540.579,538.908,0.0
53727.0,STARLINK-4701,PAYLOAD,2023-09-02 19:22:14,15.08846073,0.0001321,53.2182,59.1347,92.7748,267.3396,0.00013076,1.794e-05,0.0,0 STARLINK-4701,1 53727U 22107AD  23245.80711017  .00001794  00000-0  13076-3 0  9998,2 53727  53.2182  59.1347 0001321  92.7748 267.3396 15.08846073 55839,6917.862,95.437,540.641,538.813,0.0
53727.0,STARLINK-4701,PAYLOAD,2023-09-03 11:16:05,15.08844832,0.0001338,53.2176,56.1605,91.1501,268.9644,8.7933e-05,1.112e-05,0.0,0 STARLINK-4701,1 53727U 22107AD  23246.46951093  .00001112  00000-0  87933-4 0  9999,2 53727  53.2176  56.1605 0001338  91.1501 268.9644 15.08844832 55939,6917.866,95.437,540.656,538.805,0.0
53727.0,STARLINK-4701,PAYLOAD,2023-09-03 20:48:24,15.08851205,0.0001548,53.2185,54.3771,88.0526,272.0644,0.00012096,1.638e-05,0.0,0 STARLINK-4701,1 53727U 22107AD  23246.86694464  .00001638  00000-0  12096-3 0  9999,2 53727  53.2185  54.3771 0001548  88.0526 272.0644 15.08851205 55396,6917.846,95.437,540.782,538.64,0.0
53727.0,STARLINK-4701,PAYLOAD,2023-09-04 11:06:53,15.08836975,0.0001731,53.2179,51.7006,91.0841,269.0349,6.2138e-05,7.01e-06,0.0,0 STARLINK-4701,1 53727U 22107AD  23247.46311573  .00000701  00000-0  62138-4 0  9996,2 53727  53.2179  51.7006 0001731  91.0841 269.0349 15.08836975 55484,6917.89,95.438,540.952,538.557,0.0
53727.0,STARLINK-4701,PAYLOAD,2023-09-05 10:57:40,15.08839871,0.0001396,53.218,47.2391,96.0971,264.018,5.6643e-06,-1.98e-06,0.0,0 STARLINK-4701,1 53727U 22107AD  23248.45671601 -.00000198  00000-0  56643-5 0  9993,2 53727  53.2180  47.2391 0001396  96.0971 264.0180 15.08839871 56239,6917.881,95.438,540.712,538.78,0.0
53727.0,STARLINK-4701,PAYLOAD,2023-09-06 17:09:59,15.08836793,0.0001272,53.2182,41.5899,95.7666,264.3471,0.00016442,2.33e-05,0.0,0 STARLINK-4701,1 53727U 22107AD  23249.71527709  .00002330  00000-0  16442-3 0  9992,2 53727  53.2182  41.5899 0001272  95.7666 264.3471 15.08836793 55821,6917.89,95.438,540.635,538.875,0.0
53727.0,STARLINK-4701,PAYLOAD,2023-09-06 21:56:08,15.08845102,0.0001252,53.2182,40.6974,95.0152,265.0983,0.000164,2.323e-05,0.0,0 STARLINK-4701,1 53727U 22107AD  23249.91399205  .00002323  00000-0  16400-3 0  9998,2 53727  53.2182  40.6974 0001252  95.0152 265.0983 15.08845102 55859,6917.865,95.437,540.596,538.864,0.0
53727.0,STARLINK-4701,PAYLOAD,2023-09-07 10:39:14,15.08834589,0.0001599,53.217,38.3176,96.7261,263.3914,8.7884e-05,1.111e-05,0.0,0 STARLINK-4701,1 53727U 22107AD  23250.44392205  .00001111  00000-0  87884-4 0  9990,2 53727  53.2170  38.3176 0001599  96.7261 263.3914 15.08834589 55938,6917.897,95.438,540.868,538.656,0.0
53727.0,STARLINK-4701,PAYLOAD,2023-09-08 02:33:07,15.08828967,0.0001196,53.2198,35.3459,89.0467,271.0662,-1.7046e-05,-5.59e-06,0.0,0 STARLINK-4701,1 53727U 22107AD  23251.10633204 -.00000559  00000-0 -17046-4 0  9991,2 53727  53.2198  35.3459 0001196  89.0467 271.0662 15.08828967 56036,6917.914,95.438,540.606,538.952,0.0
53727.0,STARLINK-4701,PAYLOAD,2023-09-08 13:40:50,15.08674026,0.0002287,53.2198,33.2642,72.2792,287.845,0.0022104,0.00034906,0.0,0 STARLINK-4701,1 53727U 22107AD  23251.57002513  .00034906  00000-0  22104-2 0  9995,2 53727  53.2198  33.2642 0002287  72.2792 287.8450 15.08674026 56703,6918.388,95.448,541.835,538.671,0.0
53727.0,STARLINK-4701,PAYLOAD,2023-09-08 18:26:57,15.08862131,0.0001065,53.2193,32.3709,95.3527,264.7587,-0.00020121,-3.491e-05,0.0,0 STARLINK-4701,1 53727U 22107AD  23251.76872003 -.00003491  00000-0 -20121-3 0  9990,2 53727  53.2193  32.3709 0001065  95.3527 264.7587 15.08862131 56135,6917.813,95.436,540.414,538.941,0.0
